{
  "mtr_AEL": [
    {
      "company": "mtr",
      "id": "mtr_AEL",
      "route": "AEL",
      "route_name_tc": "機場快線",
      "route_name_en": "Airport Express",
      "name_en": "AsiaWorld-Expo",
      "name_tc": "博覽館",
      "seq": "1",
      "stop": "AWE",
      "lat": "22.320878236308904",
      "long": "113.94183805092442"
    },
    {
      "company": "mtr",
      "id": "mtr_AEL",
      "route": "AEL",
      "route_name_tc": "機場快線",
      "route_name_en": "Airport Express",
      "name_en": "Airport",
      "name_tc": "機場",
      "seq": "2",
      "stop": "AIR",
      "lat": "22.315887699100532",
      "long": "113.93653626138268"
    },
    {
      "company": "mtr",
      "id": "mtr_AEL",
      "route": "AEL",
      "route_name_tc": "機場快線",
      "route_name_en": "Airport Express",
      "name_en": "Tsing Yi",
      "name_tc": "青衣",
      "seq": "3",
      "stop": "TSY",
      "lat": "22.358512438555145",
      "long": "114.1076584909509"
    },
    {
      "company": "mtr",
      "id": "mtr_AEL",
      "route": "AEL",
      "route_name_tc": "機場快線",
      "route_name_en": "Airport Express",
      "name_en": "Kowloon",
      "name_tc": "九龍",
      "seq": "4",
      "stop": "KOW",
      "lat": "22.304305691035957",
      "long": "114.16146960967275"
    },
    {
      "company": "mtr",
      "id": "mtr_AEL",
      "route": "AEL",
      "route_name_tc": "機場快線",
      "route_name_en": "Airport Express",
      "name_en": "Hong Kong",
      "name_tc": "香港",
      "seq": "5",
      "stop": "HOK",
      "lat": "22.284686041552774",
      "long": "114.1581835231989"
    }
  ],
  "mtr_DRL": [
    {
      "company": "mtr",
      "id": "mtr_DRL",
      "route": "DRL",
      "route_name_tc": "迪士尼線",
      "route_name_en": "Disneyland Resort Line",
      "name_en": "Sunny Bay",
      "name_tc": "欣澳",
      "seq": "1",
      "stop": "SUN",
      "lat": "22.3317354599028",
      "long": "114.02895721169688"
    },
    {
      "company": "mtr",
      "id": "mtr_DRL",
      "route": "DRL",
      "route_name_tc": "迪士尼線",
      "route_name_en": "Disneyland Resort Line",
      "name_en": "Disneyland Resort",
      "name_tc": "迪士尼",
      "seq": "2",
      "stop": "DIS",
      "lat": "22.315365307772986",
      "long": "114.04519982865285"
    }
  ],
  "mtr_EAL": [
    {
      "company": "mtr",
      "id": "mtr_EAL",
      "route": "EAL",
      "route_name_tc": "東鐵線",
      "route_name_en": "East Rail Line",
      "name_en": "Lo Wu",
      "name_tc": "羅湖",
      "seq": "1",
      "stop": "LOW",
      "lat": "22.528160500810174",
      "long": "114.11340862227986"
    },
    {
      "company": "mtr",
      "id": "mtr_EAL",
      "route": "EAL",
      "route_name_tc": "東鐵線",
      "route_name_en": "East Rail Line",
      "name_en": "Lok Ma Chau",
      "name_tc": "落馬洲",
      "seq": "1",
      "stop": "LMC",
      "lat": "22.514862030460808",
      "long": "114.06560724246171"
    },
    {
      "company": "mtr",
      "id": "mtr_EAL",
      "route": "EAL",
      "route_name_tc": "東鐵線",
      "route_name_en": "East Rail Line",
      "name_en": "Sheung Shui",
      "name_tc": "上水",
      "seq": "2",
      "stop": "SHS",
      "lat": "22.50126167696661",
      "long": "114.127935366744"
    },
    {
      "company": "mtr",
      "id": "mtr_EAL",
      "route": "EAL",
      "route_name_tc": "東鐵線",
      "route_name_en": "East Rail Line",
      "name_en": "Fanling",
      "name_tc": "粉嶺",
      "seq": "3",
      "stop": "FAN",
      "lat": "22.492066994773943",
      "long": "114.13867606389636"
    },
    {
      "company": "mtr",
      "id": "mtr_EAL",
      "route": "EAL",
      "route_name_tc": "東鐵線",
      "route_name_en": "East Rail Line",
      "name_en": "Tai Wo",
      "name_tc": "太和",
      "seq": "4",
      "stop": "TWO",
      "lat": "22.451006269056442",
      "long": "114.16121353349389"
    },
    {
      "company": "mtr",
      "id": "mtr_EAL",
      "route": "EAL",
      "route_name_tc": "東鐵線",
      "route_name_en": "East Rail Line",
      "name_en": "Tai Po Market",
      "name_tc": "大埔墟",
      "seq": "5",
      "stop": "TAP",
      "lat": "22.44455631766727",
      "long": "114.17047883009643"
    },
    {
      "company": "mtr",
      "id": "mtr_EAL",
      "route": "EAL",
      "route_name_tc": "東鐵線",
      "route_name_en": "East Rail Line",
      "name_en": "University",
      "name_tc": "大學",
      "seq": "6",
      "stop": "UNI",
      "lat": "22.41315618988642",
      "long": "114.20995245326851"
    },
    {
      "company": "mtr",
      "id": "mtr_EAL",
      "route": "EAL",
      "route_name_tc": "東鐵線",
      "route_name_en": "East Rail Line",
      "name_en": "Fo Tan",
      "name_tc": "火炭",
      "seq": "7",
      "stop": "FOT",
      "lat": "22.39508453881388",
      "long": "114.1981218996912"
    },
    {
      "company": "mtr",
      "id": "mtr_EAL",
      "route": "EAL",
      "route_name_tc": "東鐵線",
      "route_name_en": "East Rail Line",
      "name_en": "Sha Tin",
      "name_tc": "沙田",
      "seq": "8",
      "stop": "SHT",
      "lat": "22.377029786125398",
      "long": "114.19497999430553"
    },
    {
      "company": "mtr",
      "id": "mtr_EAL",
      "route": "EAL",
      "route_name_tc": "東鐵線",
      "route_name_en": "East Rail Line",
      "name_en": "Tai Wai",
      "name_tc": "大圍",
      "seq": "9",
      "stop": "TAW",
      "lat": "22.372720123411025",
      "long": "114.17861754006417"
    },
    {
      "company": "mtr",
      "id": "mtr_EAL",
      "route": "EAL",
      "route_name_tc": "東鐵線",
      "route_name_en": "East Rail Line",
      "name_en": "Kowloon Tong",
      "name_tc": "九龍塘",
      "seq": "10",
      "stop": "KOT",
      "lat": "22.337157232807026",
      "long": "114.17607888953131"
    },
    {
      "company": "mtr",
      "id": "mtr_EAL",
      "route": "EAL",
      "route_name_tc": "東鐵線",
      "route_name_en": "East Rail Line",
      "name_en": "Mong Kok East",
      "name_tc": "旺角東",
      "seq": "11",
      "stop": "MKK",
      "lat": "22.322051289988806",
      "long": "114.17259435000571"
    },
    {
      "company": "mtr",
      "id": "mtr_EAL",
      "route": "EAL",
      "route_name_tc": "東鐵線",
      "route_name_en": "East Rail Line",
      "name_en": "Hung Hom",
      "name_tc": "紅磡",
      "seq": "12",
      "stop": "HUH",
      "lat": "22.302887952681683",
      "long": "114.18209861366228"
    },
    {
      "company": "mtr",
      "id": "mtr_EAL",
      "route": "EAL",
      "route_name_tc": "東鐵線",
      "route_name_en": "East Rail Line",
      "name_en": "Exhibition Centre",
      "name_tc": "會展",
      "seq": "13",
      "stop": "EXC",
      "lat": "22.282142689799905",
      "long": "114.17550763679316"
    },
    {
      "company": "mtr",
      "id": "mtr_EAL",
      "route": "EAL",
      "route_name_tc": "東鐵線",
      "route_name_en": "East Rail Line",
      "name_en": "Admiralty",
      "name_tc": "金鐘",
      "seq": "14",
      "stop": "ADM",
      "lat": "22.27941347850174",
      "long": "114.16454079886108"
    }
  ],
  "mtr_ISL": [
    {
      "company": "mtr",
      "id": "mtr_ISL",
      "route": "ISL",
      "route_name_tc": "港島線",
      "route_name_en": "Island Line",
      "name_en": "Chai Wan",
      "name_tc": "柴灣",
      "seq": "1",
      "stop": "CHW",
      "lat": "22.26464042081212",
      "long": "114.23704614340492"
    },
    {
      "company": "mtr",
      "id": "mtr_ISL",
      "route": "ISL",
      "route_name_tc": "港島線",
      "route_name_en": "Island Line",
      "name_en": "Heng Fa Chuen",
      "name_tc": "杏花邨",
      "seq": "2",
      "stop": "HFC",
      "lat": "22.27680699745514",
      "long": "114.23990751041266"
    },
    {
      "company": "mtr",
      "id": "mtr_ISL",
      "route": "ISL",
      "route_name_tc": "港島線",
      "route_name_en": "Island Line",
      "name_en": "Shau Kei Wan",
      "name_tc": "筲箕灣",
      "seq": "3",
      "stop": "SKW",
      "lat": "22.27924497260521",
      "long": "114.22887798758194"
    },
    {
      "company": "mtr",
      "id": "mtr_ISL",
      "route": "ISL",
      "route_name_tc": "港島線",
      "route_name_en": "Island Line",
      "name_en": "Sai Wan Ho",
      "name_tc": "西灣河",
      "seq": "4",
      "stop": "SWH",
      "lat": "22.282101626935496",
      "long": "114.22190062047952"
    },
    {
      "company": "mtr",
      "id": "mtr_ISL",
      "route": "ISL",
      "route_name_tc": "港島線",
      "route_name_en": "Island Line",
      "name_en": "Tai Koo",
      "name_tc": "太古",
      "seq": "5",
      "stop": "TAK",
      "lat": "22.28465233543782",
      "long": "114.2163521682177"
    },
    {
      "company": "mtr",
      "id": "mtr_ISL",
      "route": "ISL",
      "route_name_tc": "港島線",
      "route_name_en": "Island Line",
      "name_en": "Quarry Bay",
      "name_tc": "鰂魚涌",
      "seq": "6",
      "stop": "QUB",
      "lat": "22.287895141433584",
      "long": "114.20973827897926"
    },
    {
      "company": "mtr",
      "id": "mtr_ISL",
      "route": "ISL",
      "route_name_tc": "港島線",
      "route_name_en": "Island Line",
      "name_en": "North Point",
      "name_tc": "北角",
      "seq": "7",
      "stop": "NOP",
      "lat": "22.291273822302585",
      "long": "114.20049547448032"
    },
    {
      "company": "mtr",
      "id": "mtr_ISL",
      "route": "ISL",
      "route_name_tc": "港島線",
      "route_name_en": "Island Line",
      "name_en": "Fortress Hill",
      "name_tc": "炮台山",
      "seq": "8",
      "stop": "FOH",
      "lat": "22.288000955461854",
      "long": "114.19355937220712"
    },
    {
      "company": "mtr",
      "id": "mtr_ISL",
      "route": "ISL",
      "route_name_tc": "港島線",
      "route_name_en": "Island Line",
      "name_en": "Tin Hau",
      "name_tc": "天后",
      "seq": "9",
      "stop": "TIH",
      "lat": "22.28242687923294",
      "long": "114.19172322416357"
    },
    {
      "company": "mtr",
      "id": "mtr_ISL",
      "route": "ISL",
      "route_name_tc": "港島線",
      "route_name_en": "Island Line",
      "name_en": "Causeway Bay",
      "name_tc": "銅鑼灣",
      "seq": "10",
      "stop": "CAB",
      "lat": "22.280359023707057",
      "long": "114.18501164417222"
    },
    {
      "company": "mtr",
      "id": "mtr_ISL",
      "route": "ISL",
      "route_name_tc": "港島線",
      "route_name_en": "Island Line",
      "name_en": "Wan Chai",
      "name_tc": "灣仔",
      "seq": "11",
      "stop": "WAC",
      "lat": "22.27754715548959",
      "long": "114.17313920143442"
    },
    {
      "company": "mtr",
      "id": "mtr_ISL",
      "route": "ISL",
      "route_name_tc": "港島線",
      "route_name_en": "Island Line",
      "name_en": "Admiralty",
      "name_tc": "金鐘",
      "seq": "12",
      "stop": "ADM",
      "lat": "22.27941347850174",
      "long": "114.16454079886108"
    },
    {
      "company": "mtr",
      "id": "mtr_ISL",
      "route": "ISL",
      "route_name_tc": "港島線",
      "route_name_en": "Island Line",
      "name_en": "Central",
      "name_tc": "中環",
      "seq": "13",
      "stop": "CEN",
      "lat": "22.281971521983756",
      "long": "114.15816083856758"
    },
    {
      "company": "mtr",
      "id": "mtr_ISL",
      "route": "ISL",
      "route_name_tc": "港島線",
      "route_name_en": "Island Line",
      "name_en": "Sheung Wan",
      "name_tc": "上環",
      "seq": "14",
      "stop": "SHW",
      "lat": "22.28655704471235",
      "long": "114.15186949667333"
    },
    {
      "company": "mtr",
      "id": "mtr_ISL",
      "route": "ISL",
      "route_name_tc": "港島線",
      "route_name_en": "Island Line",
      "name_en": "Sai Ying Pun",
      "name_tc": "西營盤",
      "seq": "15",
      "stop": "SYP",
      "lat": "22.285534362394475",
      "long": "114.1427312069917"
    },
    {
      "company": "mtr",
      "id": "mtr_ISL",
      "route": "ISL",
      "route_name_tc": "港島線",
      "route_name_en": "Island Line",
      "name_en": "HKU",
      "name_tc": "香港大學",
      "seq": "16",
      "stop": "HKU",
      "lat": "22.283989111988046",
      "long": "114.13504248066513"
    },
    {
      "company": "mtr",
      "id": "mtr_ISL",
      "route": "ISL",
      "route_name_tc": "港島線",
      "route_name_en": "Island Line",
      "name_en": "Kennedy Town",
      "name_tc": "堅尼地城",
      "seq": "17",
      "stop": "KET",
      "lat": "22.281254513132996",
      "long": "114.12886955093184"
    }
  ],
  "mtr_KTL": [
    {
      "company": "mtr",
      "id": "mtr_KTL",
      "route": "KTL",
      "route_name_tc": "觀塘線",
      "route_name_en": "Kwun Tong Line",
      "name_en": "Tiu Keng Leng",
      "name_tc": "調景嶺",
      "seq": "1",
      "stop": "TIK",
      "lat": "22.304490152839893",
      "long": "114.25286490472735"
    },
    {
      "company": "mtr",
      "id": "mtr_KTL",
      "route": "KTL",
      "route_name_tc": "觀塘線",
      "route_name_en": "Kwun Tong Line",
      "name_en": "Yau Tong",
      "name_tc": "油塘",
      "seq": "2",
      "stop": "YAT",
      "lat": "22.298125763304675",
      "long": "114.23695974817399"
    },
    {
      "company": "mtr",
      "id": "mtr_KTL",
      "route": "KTL",
      "route_name_tc": "觀塘線",
      "route_name_en": "Kwun Tong Line",
      "name_en": "Lam Tin",
      "name_tc": "藍田",
      "seq": "3",
      "stop": "LAT",
      "lat": "22.306858633362157",
      "long": "114.23272055814525"
    },
    {
      "company": "mtr",
      "id": "mtr_KTL",
      "route": "KTL",
      "route_name_tc": "觀塘線",
      "route_name_en": "Kwun Tong Line",
      "name_en": "Kwun Tong",
      "name_tc": "觀塘",
      "seq": "4",
      "stop": "KWT",
      "lat": "22.312223396214144",
      "long": "114.22635138125507"
    },
    {
      "company": "mtr",
      "id": "mtr_KTL",
      "route": "KTL",
      "route_name_tc": "觀塘線",
      "route_name_en": "Kwun Tong Line",
      "name_en": "Ngau Tau Kok",
      "name_tc": "牛頭角",
      "seq": "5",
      "stop": "NTK",
      "lat": "22.315567816937776",
      "long": "114.2189749122765"
    },
    {
      "company": "mtr",
      "id": "mtr_KTL",
      "route": "KTL",
      "route_name_tc": "觀塘線",
      "route_name_en": "Kwun Tong Line",
      "name_en": "Kowloon Bay",
      "name_tc": "九龍灣",
      "seq": "6",
      "stop": "KOB",
      "lat": "22.32326707367571",
      "long": "114.21391374901927"
    },
    {
      "company": "mtr",
      "id": "mtr_KTL",
      "route": "KTL",
      "route_name_tc": "觀塘線",
      "route_name_en": "Kwun Tong Line",
      "name_en": "Choi Hung",
      "name_tc": "彩虹",
      "seq": "7",
      "stop": "CHH",
      "lat": "22.334912782552024",
      "long": "114.20898099935908"
    },
    {
      "company": "mtr",
      "id": "mtr_KTL",
      "route": "KTL",
      "route_name_tc": "觀塘線",
      "route_name_en": "Kwun Tong Line",
      "name_en": "Diamond Hill",
      "name_tc": "鑽石山",
      "seq": "8",
      "stop": "DIH",
      "lat": "22.340034436033115",
      "long": "114.20167546798106"
    },
    {
      "company": "mtr",
      "id": "mtr_KTL",
      "route": "KTL",
      "route_name_tc": "觀塘線",
      "route_name_en": "Kwun Tong Line",
      "name_en": "Wong Tai Sin",
      "name_tc": "黃大仙",
      "seq": "9",
      "stop": "WTS",
      "lat": "22.34166165387438",
      "long": "114.19383467444433"
    },
    {
      "company": "mtr",
      "id": "mtr_KTL",
      "route": "KTL",
      "route_name_tc": "觀塘線",
      "route_name_en": "Kwun Tong Line",
      "name_en": "Lok Fu",
      "name_tc": "樂富",
      "seq": "10",
      "stop": "LOF",
      "lat": "22.338025824423116",
      "long": "114.18700694755367"
    },
    {
      "company": "mtr",
      "id": "mtr_KTL",
      "route": "KTL",
      "route_name_tc": "觀塘線",
      "route_name_en": "Kwun Tong Line",
      "name_en": "Kowloon Tong",
      "name_tc": "九龍塘",
      "seq": "11",
      "stop": "KOT",
      "lat": "22.337157232807026",
      "long": "114.17607888953131"
    },
    {
      "company": "mtr",
      "id": "mtr_KTL",
      "route": "KTL",
      "route_name_tc": "觀塘線",
      "route_name_en": "Kwun Tong Line",
      "name_en": "Shek Kip Mei",
      "name_tc": "石硤尾",
      "seq": "12",
      "stop": "SKM",
      "lat": "22.332118560190942",
      "long": "114.16879740289232"
    },
    {
      "company": "mtr",
      "id": "mtr_KTL",
      "route": "KTL",
      "route_name_tc": "觀塘線",
      "route_name_en": "Kwun Tong Line",
      "name_en": "Prince Edward",
      "name_tc": "太子",
      "seq": "13",
      "stop": "PRE",
      "lat": "22.325082944366997",
      "long": "114.16837815943852"
    },
    {
      "company": "mtr",
      "id": "mtr_KTL",
      "route": "KTL",
      "route_name_tc": "觀塘線",
      "route_name_en": "Kwun Tong Line",
      "name_en": "Mong Kok",
      "name_tc": "旺角",
      "seq": "14",
      "stop": "MOK",
      "lat": "22.319258594594153",
      "long": "114.16935185528698"
    },
    {
      "company": "mtr",
      "id": "mtr_KTL",
      "route": "KTL",
      "route_name_tc": "觀塘線",
      "route_name_en": "Kwun Tong Line",
      "name_en": "Yau Ma Tei",
      "name_tc": "油麻地",
      "seq": "15",
      "stop": "YMT",
      "lat": "22.312833814188053",
      "long": "114.17067121017935"
    },
    {
      "company": "mtr",
      "id": "mtr_KTL",
      "route": "KTL",
      "route_name_tc": "觀塘線",
      "route_name_en": "Kwun Tong Line",
      "name_en": "Ho Man Tin",
      "name_tc": "何文田",
      "seq": "16",
      "stop": "HOM",
      "lat": "22.309366947586355",
      "long": "114.18272213374736"
    },
    {
      "company": "mtr",
      "id": "mtr_KTL",
      "route": "KTL",
      "route_name_tc": "觀塘線",
      "route_name_en": "Kwun Tong Line",
      "name_en": "Whampoa",
      "name_tc": "黃埔",
      "seq": "17",
      "stop": "WHA",
      "lat": "22.305047975088126",
      "long": "114.18955297439268"
    }
  ],
  "mtr_TML": [
    {
      "company": "mtr",
      "id": "mtr_TML",
      "route": "TML",
      "route_name_tc": "屯馬線",
      "route_name_en": "Tuen Ma Line",
      "name_en": "Wu Kai Sha",
      "name_tc": "烏溪沙",
      "seq": "1",
      "stop": "WKS",
      "lat": "22.429142096379305",
      "long": "114.24383872030143"
    },
    {
      "company": "mtr",
      "id": "mtr_TML",
      "route": "TML",
      "route_name_tc": "屯馬線",
      "route_name_en": "Tuen Ma Line",
      "name_en": "Ma On Shan",
      "name_tc": "馬鞍山",
      "seq": "2",
      "stop": "MOS",
      "lat": "22.42484297563646",
      "long": "114.23162820404592"
    },
    {
      "company": "mtr",
      "id": "mtr_TML",
      "route": "TML",
      "route_name_tc": "屯馬線",
      "route_name_en": "Tuen Ma Line",
      "name_en": "Heng On",
      "name_tc": "恆安",
      "seq": "3",
      "stop": "HEO",
      "lat": "22.417324859679667",
      "long": "114.22568692657686"
    },
    {
      "company": "mtr",
      "id": "mtr_TML",
      "route": "TML",
      "route_name_tc": "屯馬線",
      "route_name_en": "Tuen Ma Line",
      "name_en": "Tai Shui Hang",
      "name_tc": "大水坑",
      "seq": "4",
      "stop": "TSH",
      "lat": "22.40843062035457",
      "long": "114.22269507754658"
    },
    {
      "company": "mtr",
      "id": "mtr_TML",
      "route": "TML",
      "route_name_tc": "屯馬線",
      "route_name_en": "Tuen Ma Line",
      "name_en": "Shek Mun",
      "name_tc": "石門",
      "seq": "5",
      "stop": "SHM",
      "lat": "22.387698752784242",
      "long": "114.20834416871683"
    },
    {
      "company": "mtr",
      "id": "mtr_TML",
      "route": "TML",
      "route_name_tc": "屯馬線",
      "route_name_en": "Tuen Ma Line",
      "name_en": "City One",
      "name_tc": "第一城",
      "seq": "6",
      "stop": "CIO",
      "lat": "22.382906005180228",
      "long": "114.20368488382796"
    },
    {
      "company": "mtr",
      "id": "mtr_TML",
      "route": "TML",
      "route_name_tc": "屯馬線",
      "route_name_en": "Tuen Ma Line",
      "name_en": "Sha Tin Wai",
      "name_tc": "沙田圍",
      "seq": "7",
      "stop": "STW",
      "lat": "22.377030177117238",
      "long": "114.19497063808957"
    },
    {
      "company": "mtr",
      "id": "mtr_TML",
      "route": "TML",
      "route_name_tc": "屯馬線",
      "route_name_en": "Tuen Ma Line",
      "name_en": "Che Kung Temple",
      "name_tc": "車公廟",
      "seq": "8",
      "stop": "CKT",
      "lat": "22.374784638691928",
      "long": "114.18593254281242"
    },
    {
      "company": "mtr",
      "id": "mtr_TML",
      "route": "TML",
      "route_name_tc": "屯馬線",
      "route_name_en": "Tuen Ma Line",
      "name_en": "Tai Wai",
      "name_tc": "大圍",
      "seq": "9",
      "stop": "TAW",
      "lat": "22.372720123411025",
      "long": "114.17861754006417"
    },
    {
      "company": "mtr",
      "id": "mtr_TML",
      "route": "TML",
      "route_name_tc": "屯馬線",
      "route_name_en": "Tuen Ma Line",
      "name_en": "Hin Keng",
      "name_tc": "顯徑",
      "seq": "10",
      "stop": "HIK",
      "lat": "22.363844169755378",
      "long": "114.1707736631676"
    },
    {
      "company": "mtr",
      "id": "mtr_TML",
      "route": "TML",
      "route_name_tc": "屯馬線",
      "route_name_en": "Tuen Ma Line",
      "name_en": "Diamond Hill",
      "name_tc": "鑽石山",
      "seq": "11",
      "stop": "DIH",
      "lat": "22.340034436033115",
      "long": "114.20167546798106"
    },
    {
      "company": "mtr",
      "id": "mtr_TML",
      "route": "TML",
      "route_name_tc": "屯馬線",
      "route_name_en": "Tuen Ma Line",
      "name_en": "Kai Tak",
      "name_tc": "啟德",
      "seq": "12",
      "stop": "KAT",
      "lat": "22.330574454154288",
      "long": "114.19953858425268"
    },
    {
      "company": "mtr",
      "id": "mtr_TML",
      "route": "TML",
      "route_name_tc": "屯馬線",
      "route_name_en": "Tuen Ma Line",
      "name_en": "Sung Wong Toi",
      "name_tc": "宋皇臺",
      "seq": "13",
      "stop": "SUW",
      "lat": "22.325922309979273",
      "long": "114.19126542597317"
    },
    {
      "company": "mtr",
      "id": "mtr_TML",
      "route": "TML",
      "route_name_tc": "屯馬線",
      "route_name_en": "Tuen Ma Line",
      "name_en": "To Kwa Wan",
      "name_tc": "土瓜灣",
      "seq": "14",
      "stop": "TKW",
      "lat": "22.317318453672414",
      "long": "114.18758831815998"
    },
    {
      "company": "mtr",
      "id": "mtr_TML",
      "route": "TML",
      "route_name_tc": "屯馬線",
      "route_name_en": "Tuen Ma Line",
      "name_en": "Ho Man Tin",
      "name_tc": "何文田",
      "seq": "15",
      "stop": "HOM",
      "lat": "22.309366947586355",
      "long": "114.18272213374736"
    },
    {
      "company": "mtr",
      "id": "mtr_TML",
      "route": "TML",
      "route_name_tc": "屯馬線",
      "route_name_en": "Tuen Ma Line",
      "name_en": "Hung Hom",
      "name_tc": "紅磡",
      "seq": "16",
      "stop": "HUH",
      "lat": "22.302887952681683",
      "long": "114.18209861366228"
    },
    {
      "company": "mtr",
      "id": "mtr_TML",
      "route": "TML",
      "route_name_tc": "屯馬線",
      "route_name_en": "Tuen Ma Line",
      "name_en": "East Tsim Sha Tsui",
      "name_tc": "尖東",
      "seq": "17",
      "stop": "ETS",
      "lat": "22.294822911176247",
      "long": "114.17341494441476"
    },
    {
      "company": "mtr",
      "id": "mtr_TML",
      "route": "TML",
      "route_name_tc": "屯馬線",
      "route_name_en": "Tuen Ma Line",
      "name_en": "Austin",
      "name_tc": "柯士甸",
      "seq": "18",
      "stop": "AUS",
      "lat": "22.305326500469896",
      "long": "114.16607446349632"
    },
    {
      "company": "mtr",
      "id": "mtr_TML",
      "route": "TML",
      "route_name_tc": "屯馬線",
      "route_name_en": "Tuen Ma Line",
      "name_en": "Nam Cheong",
      "name_tc": "南昌",
      "seq": "19",
      "stop": "NAC",
      "lat": "22.326782033013238",
      "long": "114.15367678937884"
    },
    {
      "company": "mtr",
      "id": "mtr_TML",
      "route": "TML",
      "route_name_tc": "屯馬線",
      "route_name_en": "Tuen Ma Line",
      "name_en": "Mei Foo",
      "name_tc": "美孚",
      "seq": "20",
      "stop": "MEF",
      "lat": "22.337577436973817",
      "long": "114.1379514829665"
    },
    {
      "company": "mtr",
      "id": "mtr_TML",
      "route": "TML",
      "route_name_tc": "屯馬線",
      "route_name_en": "Tuen Ma Line",
      "name_en": "Tsuen Wan West",
      "name_tc": "荃灣西",
      "seq": "21",
      "stop": "TWW",
      "lat": "22.368444405929967",
      "long": "114.10969641052833"
    },
    {
      "company": "mtr",
      "id": "mtr_TML",
      "route": "TML",
      "route_name_tc": "屯馬線",
      "route_name_en": "Tuen Ma Line",
      "name_en": "Kam Sheung Road",
      "name_tc": "錦上路",
      "seq": "22",
      "stop": "KSR",
      "lat": "22.434800406382877",
      "long": "114.06353375971406"
    },
    {
      "company": "mtr",
      "id": "mtr_TML",
      "route": "TML",
      "route_name_tc": "屯馬線",
      "route_name_en": "Tuen Ma Line",
      "name_en": "Yuen Long",
      "name_tc": "元朗",
      "seq": "23",
      "stop": "YUL",
      "lat": "22.446090550908657",
      "long": "114.03475254069534"
    },
    {
      "company": "mtr",
      "id": "mtr_TML",
      "route": "TML",
      "route_name_tc": "屯馬線",
      "route_name_en": "Tuen Ma Line",
      "name_en": "Long Ping",
      "name_tc": "朗屏",
      "seq": "24",
      "stop": "LOP",
      "lat": "22.44770716466467",
      "long": "114.02544493342202"
    },
    {
      "company": "mtr",
      "id": "mtr_TML",
      "route": "TML",
      "route_name_tc": "屯馬線",
      "route_name_en": "Tuen Ma Line",
      "name_en": "Tin Shui Wai",
      "name_tc": "天水圍",
      "seq": "25",
      "stop": "TIS",
      "lat": "22.448230864422307",
      "long": "114.00474497385187"
    },
    {
      "company": "mtr",
      "id": "mtr_TML",
      "route": "TML",
      "route_name_tc": "屯馬線",
      "route_name_en": "Tuen Ma Line",
      "name_en": "Siu Hong",
      "name_tc": "兆康",
      "seq": "26",
      "stop": "SIH",
      "lat": "22.41176144681082",
      "long": "113.97897944619517"
    },
    {
      "company": "mtr",
      "id": "mtr_TML",
      "route": "TML",
      "route_name_tc": "屯馬線",
      "route_name_en": "Tuen Ma Line",
      "name_en": "Tuen Mun",
      "name_tc": "屯門",
      "seq": "27",
      "stop": "TUM",
      "lat": "22.394890205578516",
      "long": "113.97312554969494"
    }
  ],
  "mtr_TCL": [
    {
      "company": "mtr",
      "id": "mtr_TCL",
      "route": "TCL",
      "route_name_tc": "東涌線",
      "route_name_en": "Tung Chung Line",
      "name_en": "Tung Chung",
      "name_tc": "東涌",
      "seq": "1",
      "stop": "TUC",
      "lat": "22.289264799472594",
      "long": "113.94144947559154"
    },
    {
      "company": "mtr",
      "id": "mtr_TCL",
      "route": "TCL",
      "route_name_tc": "東涌線",
      "route_name_en": "Tung Chung Line",
      "name_en": "Sunny Bay",
      "name_tc": "欣澳",
      "seq": "2",
      "stop": "SUN",
      "lat": "22.3317354599028",
      "long": "114.02895721169688"
    },
    {
      "company": "mtr",
      "id": "mtr_TCL",
      "route": "TCL",
      "route_name_tc": "東涌線",
      "route_name_en": "Tung Chung Line",
      "name_en": "Tsing Yi",
      "name_tc": "青衣",
      "seq": "3",
      "stop": "TSY",
      "lat": "22.358512438555145",
      "long": "114.1076584909509"
    },
    {
      "company": "mtr",
      "id": "mtr_TCL",
      "route": "TCL",
      "route_name_tc": "東涌線",
      "route_name_en": "Tung Chung Line",
      "name_en": "Lai King",
      "name_tc": "茘景",
      "seq": "4",
      "stop": "LAK",
      "lat": "22.34844982624764",
      "long": "114.12611921705636"
    },
    {
      "company": "mtr",
      "id": "mtr_TCL",
      "route": "TCL",
      "route_name_tc": "東涌線",
      "route_name_en": "Tung Chung Line",
      "name_en": "Nam Cheong",
      "name_tc": "南昌",
      "seq": "5",
      "stop": "NAC",
      "lat": "22.326782033013238",
      "long": "114.15367678937884"
    },
    {
      "company": "mtr",
      "id": "mtr_TCL",
      "route": "TCL",
      "route_name_tc": "東涌線",
      "route_name_en": "Tung Chung Line",
      "name_en": "Olympic",
      "name_tc": "奧運",
      "seq": "6",
      "stop": "OLY",
      "lat": "22.317850059137903",
      "long": "114.16011858185531"
    },
    {
      "company": "mtr",
      "id": "mtr_TCL",
      "route": "TCL",
      "route_name_tc": "東涌線",
      "route_name_en": "Tung Chung Line",
      "name_en": "Kowloon",
      "name_tc": "九龍",
      "seq": "7",
      "stop": "KOW",
      "lat": "22.304305691035957",
      "long": "114.16146960967275"
    },
    {
      "company": "mtr",
      "id": "mtr_TCL",
      "route": "TCL",
      "route_name_tc": "東涌線",
      "route_name_en": "Tung Chung Line",
      "name_en": "Hong Kong",
      "name_tc": "香港",
      "seq": "8",
      "stop": "HOK",
      "lat": "22.284686041552774",
      "long": "114.1581835231989"
    }
  ],
  "mtr_TKL": [
    {
      "company": "mtr",
      "id": "mtr_TKL",
      "route": "TKL",
      "route_name_tc": "將軍澳線",
      "route_name_en": "Tseung Kwan O Line",
      "name_en": "Po Lam",
      "name_tc": "寶琳",
      "seq": "1",
      "stop": "POA",
      "lat": "22.32251355834842",
      "long": "114.257807139147"
    },
    {
      "company": "mtr",
      "id": "mtr_TKL",
      "route": "TKL",
      "route_name_tc": "將軍澳線",
      "route_name_en": "Tseung Kwan O Line",
      "name_en": "LOHAS Park",
      "name_tc": "康城",
      "seq": "1",
      "stop": "LHP",
      "lat": "22.29633343745856",
      "long": "114.26961556452899"
    },
    {
      "company": "mtr",
      "id": "mtr_TKL",
      "route": "TKL",
      "route_name_tc": "將軍澳線",
      "route_name_en": "Tseung Kwan O Line",
      "name_en": "Hang Hau",
      "name_tc": "坑口",
      "seq": "2",
      "stop": "HAH",
      "lat": "22.315606041301333",
      "long": "114.26438457028505"
    },
    {
      "company": "mtr",
      "id": "mtr_TKL",
      "route": "TKL",
      "route_name_tc": "將軍澳線",
      "route_name_en": "Tseung Kwan O Line",
      "name_en": "Tseung Kwan O",
      "name_tc": "將軍澳",
      "seq": "3",
      "stop": "TKO",
      "lat": "22.307458173854403",
      "long": "114.26000940100057"
    },
    {
      "company": "mtr",
      "id": "mtr_TKL",
      "route": "TKL",
      "route_name_tc": "將軍澳線",
      "route_name_en": "Tseung Kwan O Line",
      "name_en": "Tiu Keng Leng",
      "name_tc": "調景嶺",
      "seq": "4",
      "stop": "TIK",
      "lat": "22.304490152839893",
      "long": "114.25286490472735"
    },
    {
      "company": "mtr",
      "id": "mtr_TKL",
      "route": "TKL",
      "route_name_tc": "將軍澳線",
      "route_name_en": "Tseung Kwan O Line",
      "name_en": "Yau Tong",
      "name_tc": "油塘",
      "seq": "5",
      "stop": "YAT",
      "lat": "22.298125763304675",
      "long": "114.23695974817399"
    },
    {
      "company": "mtr",
      "id": "mtr_TKL",
      "route": "TKL",
      "route_name_tc": "將軍澳線",
      "route_name_en": "Tseung Kwan O Line",
      "name_en": "Quarry Bay",
      "name_tc": "鰂魚涌",
      "seq": "6",
      "stop": "QUB",
      "lat": "22.287895141433584",
      "long": "114.20973827897926"
    },
    {
      "company": "mtr",
      "id": "mtr_TKL",
      "route": "TKL",
      "route_name_tc": "將軍澳線",
      "route_name_en": "Tseung Kwan O Line",
      "name_en": "North Point",
      "name_tc": "北角",
      "seq": "7",
      "stop": "NOP",
      "lat": "22.291273822302585",
      "long": "114.20049547448032"
    }
  ],
  "mtr_TWL": [
    {
      "company": "mtr",
      "id": "mtr_TWL",
      "route": "TWL",
      "route_name_tc": "荃灣線",
      "route_name_en": "Tsuen Wan Line",
      "name_en": "Tsuen Wan",
      "name_tc": "荃灣",
      "seq": "1",
      "stop": "TSW",
      "lat": "22.373684186886283",
      "long": "114.11771585522605"
    },
    {
      "company": "mtr",
      "id": "mtr_TWL",
      "route": "TWL",
      "route_name_tc": "荃灣線",
      "route_name_en": "Tsuen Wan Line",
      "name_en": "Tai Wo Hau",
      "name_tc": "大窩口",
      "seq": "2",
      "stop": "TWH",
      "lat": "22.370797058298546",
      "long": "114.12505399887957"
    },
    {
      "company": "mtr",
      "id": "mtr_TWL",
      "route": "TWL",
      "route_name_tc": "荃灣線",
      "route_name_en": "Tsuen Wan Line",
      "name_en": "Kwai Hing",
      "name_tc": "葵興",
      "seq": "3",
      "stop": "KWH",
      "lat": "22.36306623072197",
      "long": "114.13122163978066"
    },
    {
      "company": "mtr",
      "id": "mtr_TWL",
      "route": "TWL",
      "route_name_tc": "荃灣線",
      "route_name_en": "Tsuen Wan Line",
      "name_en": "Kwai Fong",
      "name_tc": "葵芳",
      "seq": "4",
      "stop": "KWF",
      "lat": "22.356809467454518",
      "long": "114.12781374177064"
    },
    {
      "company": "mtr",
      "id": "mtr_TWL",
      "route": "TWL",
      "route_name_tc": "荃灣線",
      "route_name_en": "Tsuen Wan Line",
      "name_en": "Lai King",
      "name_tc": "茘景",
      "seq": "5",
      "stop": "LAK",
      "lat": "22.34844982624764",
      "long": "114.12611921705636"
    },
    {
      "company": "mtr",
      "id": "mtr_TWL",
      "route": "TWL",
      "route_name_tc": "荃灣線",
      "route_name_en": "Tsuen Wan Line",
      "name_en": "Mei Foo",
      "name_tc": "美孚",
      "seq": "6",
      "stop": "MEF",
      "lat": "22.337577436973817",
      "long": "114.1379514829665"
    },
    {
      "company": "mtr",
      "id": "mtr_TWL",
      "route": "TWL",
      "route_name_tc": "荃灣線",
      "route_name_en": "Tsuen Wan Line",
      "name_en": "Lai Chi Kok",
      "name_tc": "茘枝角",
      "seq": "7",
      "stop": "LCK",
      "lat": "22.337261709729844",
      "long": "114.14802230475041"
    },
    {
      "company": "mtr",
      "id": "mtr_TWL",
      "route": "TWL",
      "route_name_tc": "荃灣線",
      "route_name_en": "Tsuen Wan Line",
      "name_en": "Cheung Sha Wan",
      "name_tc": "長沙灣",
      "seq": "8",
      "stop": "CSW",
      "lat": "22.335607894741607",
      "long": "114.15597323531726"
    },
    {
      "company": "mtr",
      "id": "mtr_TWL",
      "route": "TWL",
      "route_name_tc": "荃灣線",
      "route_name_en": "Tsuen Wan Line",
      "name_en": "Sham Shui Po",
      "name_tc": "深水埗",
      "seq": "9",
      "stop": "SSP",
      "lat": "22.33078435522741",
      "long": "114.16226261655537"
    },
    {
      "company": "mtr",
      "id": "mtr_TWL",
      "route": "TWL",
      "route_name_tc": "荃灣線",
      "route_name_en": "Tsuen Wan Line",
      "name_en": "Prince Edward",
      "name_tc": "太子",
      "seq": "10",
      "stop": "PRE",
      "lat": "22.325082944366997",
      "long": "114.16837815943852"
    },
    {
      "company": "mtr",
      "id": "mtr_TWL",
      "route": "TWL",
      "route_name_tc": "荃灣線",
      "route_name_en": "Tsuen Wan Line",
      "name_en": "Mong Kok",
      "name_tc": "旺角",
      "seq": "11",
      "stop": "MOK",
      "lat": "22.319258594594153",
      "long": "114.16935185528698"
    },
    {
      "company": "mtr",
      "id": "mtr_TWL",
      "route": "TWL",
      "route_name_tc": "荃灣線",
      "route_name_en": "Tsuen Wan Line",
      "name_en": "Yau Ma Tei",
      "name_tc": "油麻地",
      "seq": "12",
      "stop": "YMT",
      "lat": "22.312833814188053",
      "long": "114.17067121017935"
    },
    {
      "company": "mtr",
      "id": "mtr_TWL",
      "route": "TWL",
      "route_name_tc": "荃灣線",
      "route_name_en": "Tsuen Wan Line",
      "name_en": "Jordan",
      "name_tc": "佐敦",
      "seq": "13",
      "stop": "JOR",
      "lat": "22.304801819392154",
      "long": "114.17164288302433"
    },
    {
      "company": "mtr",
      "id": "mtr_TWL",
      "route": "TWL",
      "route_name_tc": "荃灣線",
      "route_name_en": "Tsuen Wan Line",
      "name_en": "Tsim Sha Tsui",
      "name_tc": "尖沙咀",
      "seq": "14",
      "stop": "TST",
      "lat": "22.297573414532636",
      "long": "114.1721906217891"
    },
    {
      "company": "mtr",
      "id": "mtr_TWL",
      "route": "TWL",
      "route_name_tc": "荃灣線",
      "route_name_en": "Tsuen Wan Line",
      "name_en": "Admiralty",
      "name_tc": "金鐘",
      "seq": "15",
      "stop": "ADM",
      "lat": "22.27941347850174",
      "long": "114.16454079886108"
    },
    {
      "company": "mtr",
      "id": "mtr_TWL",
      "route": "TWL",
      "route_name_tc": "荃灣線",
      "route_name_en": "Tsuen Wan Line",
      "name_en": "Central",
      "name_tc": "中環",
      "seq": "16",
      "stop": "CEN",
      "lat": "22.281971521983756",
      "long": "114.15816083856758"
    }
  ],
  "mtr_SIL": [
    {
      "company": "mtr",
      "id": "mtr_SIL",
      "route": "SIL",
      "route_name_tc": "南港島線",
      "route_name_en": "South Island Line",
      "name_en": "Admiralty",
      "name_tc": "金鐘",
      "seq": "1",
      "stop": "ADM",
      "lat": "22.27941347850174",
      "long": "114.16454079886108"
    },
    {
      "company": "mtr",
      "id": "mtr_SIL",
      "route": "SIL",
      "route_name_tc": "南港島線",
      "route_name_en": "South Island Line",
      "name_en": "Ocean Park",
      "name_tc": "海洋公園",
      "seq": "2",
      "stop": "OCP",
      "lat": "22.24870195517299",
      "long": "114.1744394035013"
    },
    {
      "company": "mtr",
      "id": "mtr_SIL",
      "route": "SIL",
      "route_name_tc": "南港島線",
      "route_name_en": "South Island Line",
      "name_en": "Wong Chuk Hang",
      "name_tc": "黃竹坑",
      "seq": "3",
      "stop": "WCH",
      "lat": "22.247985763992077",
      "long": "114.16802387032658"
    },
    {
      "company": "mtr",
      "id": "mtr_SIL",
      "route": "SIL",
      "route_name_tc": "南港島線",
      "route_name_en": "South Island Line",
      "name_en": "Lei Tung",
      "name_tc": "利東",
      "seq": "4",
      "stop": "LET",
      "lat": "22.24194981669075",
      "long": "114.15609453361536"
    },
    {
      "company": "mtr",
      "id": "mtr_SIL",
      "route": "SIL",
      "route_name_tc": "南港島線",
      "route_name_en": "South Island Line",
      "name_en": "South Horizons",
      "name_tc": "海怡半島",
      "seq": "5",
      "stop": "SOH",
      "lat": "22.24285853157453",
      "long": "114.1487462466504"
    }
  ]
}